CTC2_L_00344001-01
1 10000U 24965HI  26075.70045139  .00000000  00000+0  00000-0 0  9995
2 10000  65.0000   0.0000 0000000   0.0000   0.0000 13.42494874    11
CTC2_L_00344001-02
1 10001U 25355WB  26075.70045139  .00000000  00000+0  00000-0 0  9990
2 10001  65.0000   0.0000 0000000   0.0000  90.0000 13.42494874    11
CTC2_L_00344001-03
1 10002U 22841V   26075.70045139  .00000000  00000+0  00000-0 0  9998
2 10002  65.0000   0.0000 0000000   0.0000 180.0000 13.42494874    12
CTC2_L_00344001-04
1 10003U 22042BC  26075.70045139  .00000000  00000+0  00000-0 0  9992
2 10003  65.0000   0.0000 0000000   0.0000 270.0000 13.42494874    13
CTC2_L_00344002-01
1 10004U 26196FY  26075.70045139  .00000000  00000+0  00000-0 0  9997
2 10004  65.0000  12.0000 0000000   0.0000  12.0000 13.42494874    11
CTC2_L_00344002-02
1 10005U 23398OQ  26075.70045139  .00000000  00000+0  00000-0 0  9999
2 10005  65.0000  12.0000 0000000   0.0000 102.0000 13.42494874    12
CTC2_L_00344002-03
1 10006U 22822DU  26075.70045139  .00000000  00000+0  00000-0 0  9991
2 10006  65.0000  12.0000 0000000   0.0000 192.0000 13.42494874    12
CTC2_L_00344002-04
1 10007U 22640BO  26075.70045139  .00000000  00000+0  00000-0 0  9990
2 10007  65.0000  12.0000 0000000   0.0000 282.0000 13.42494874    13
CTC2_L_00344003-01
1 10008U 25217KL  26075.70045139  .00000000  00000+0  00000-0 0  9994
2 10008  65.0000  24.0000 0000000   0.0000  24.0000 13.42494874    11
CTC2_L_00344003-02
1 10009U 23797UG  26075.70045139  .00000000  00000+0  00000-0 0  9996
2 10009  65.0000  24.0000 0000000   0.0000 114.0000 13.42494874    12
CTC2_L_00344003-03
1 10010U 22027BN  26075.70045139  .00000000  00000+0  00000-0 0  9993
2 10010  65.0000  24.0000 0000000   0.0000 204.0000 13.42494874    14
CTC2_L_00344003-04
1 10011U 23482ZN  26075.70045139  .00000000  00000+0  00000-0 0  9990
2 10011  65.0000  24.0000 0000000   0.0000 294.0000 13.42494874    14
CTC2_L_00344004-01
1 10012U 25203AU  26075.70045139  .00000000  00000+0  00000-0 0  9994
2 10012  65.0000  36.0000 0000000   0.0000  36.0000 13.42494874    12
CTC2_L_00344004-02
1 10013U 22468MY  26075.70045139  .00000000  00000+0  00000-0 0  9995
2 10013  65.0000  36.0000 0000000   0.0000 126.0000 13.42494874    13
CTC2_L_00344004-03
1 10014U 22995L   26075.70045139  .00000000  00000+0  00000-0 0  9991
2 10014  65.0000  36.0000 0000000   0.0000 216.0000 13.42494874    14
CTC2_L_00344004-04
1 10015U 25691H   26075.70045139  .00000000  00000+0  00000-0 0  9998
2 10015  65.0000  36.0000 0000000   0.0000 306.0000 13.42494874    15
CTC2_L_00344005-01
1 10016U 24691OQ  26075.70045139  .00000000  00000+0  00000-0 0  9998
2 10016  65.0000  48.0000 0000000   0.0000  48.0000 13.42494874    12
CTC2_L_00344005-02
1 10017U 26227SM  26075.70045139  .00000000  00000+0  00000-0 0  9996
2 10017  65.0000  48.0000 0000000   0.0000 138.0000 13.42494874    13
CTC2_L_00344005-03
1 10018U 25910PP  26075.70045139  .00000000  00000+0  00000-0 0  9995
2 10018  65.0000  48.0000 0000000   0.0000 228.0000 13.42494874    14
CTC2_L_00344005-04
1 10019U 25047AP  26075.70045139  .00000000  00000+0  00000-0 0  9997
2 10019  65.0000  48.0000 0000000   0.0000 318.0000 13.42494874    15
CTC2_L_00344006-01
1 10020U 23553RD  26075.70045139  .00000000  00000+0  00000-0 0  9999
2 10020  65.0000  60.0000 0000000   0.0000  60.0000 13.42494874    15
CTC2_L_00344006-02
1 10021U 24127HH  26075.70045139  .00000000  00000+0  00000-0 0  9998
2 10021  65.0000  60.0000 0000000   0.0000 150.0000 13.42494874    16
CTC2_L_00344006-03
1 10022U 24948UR  26075.70045139  .00000000  00000+0  00000-0 0  9990
2 10022  65.0000  60.0000 0000000   0.0000 240.0000 13.42494874    17
CTC2_L_00344006-04
1 10023U 23071NF  26075.70045139  .00000000  00000+0  00000-0 0  9997
2 10023  65.0000  60.0000 0000000   0.0000 330.0000 13.42494874    18
CTC2_L_00344007-01
1 10024U 25291TA  26075.70045139  .00000000  00000+0  00000-0 0  9994
2 10024  65.0000  72.0000 0000000   0.0000  72.0000 13.42494874    15
CTC2_L_00344007-02
1 10025U 25578BI  26075.70045139  .00000000  00000+0  00000-0 0  9993
2 10025  65.0000  72.0000 0000000   0.0000 162.0000 13.42494874    16
CTC2_L_00344007-03
1 10026U 22823KA  26075.70045139  .00000000  00000+0  00000-0 0  9994
2 10026  65.0000  72.0000 0000000   0.0000 252.0000 13.42494874    17
CTC2_L_00344007-04
1 10027U 25085BF  26075.70045139  .00000000  00000+0  00000-0 0  9998
2 10027  65.0000  72.0000 0000000   0.0000 342.0000 13.42494874    18
CTC2_L_00344008-01
1 10028U 22365DH  26075.70045139  .00000000  00000+0  00000-0 0  9997
2 10028  65.0000  84.0000 0000000   0.0000  84.0000 13.42494874    15
CTC2_L_00344008-02
1 10029U 24525OG  26075.70045139  .00000000  00000+0  00000-0 0  9998
2 10029  65.0000  84.0000 0000000   0.0000 174.0000 13.42494874    16
CTC2_L_00344008-03
1 10030U 24672LB  26075.70045139  .00000000  00000+0  00000-0 0  9993
2 10030  65.0000  84.0000 0000000   0.0000 264.0000 13.42494874    18
CTC2_L_00344008-04
1 10031U 22680OS  26075.70045139  .00000000  00000+0  00000-0 0  9991
2 10031  65.0000  84.0000 0000000   0.0000 354.0000 13.42494874    19
CTC2_L_00344009-01
1 10032U 24269EX  26075.70045139  .00000000  00000+0  00000-0 0  9997
2 10032  65.0000  96.0000 0000000   0.0000  96.0000 13.42494874    16
CTC2_L_00344009-02
1 10033U 24827FE  26075.70045139  .00000000  00000+0  00000-0 0  9998
2 10033  65.0000  96.0000 0000000   0.0000 186.0000 13.42494874    17
CTC2_L_00344009-03
1 10034U 26861PX  26075.70045139  .00000000  00000+0  00000-0 0  9999
2 10034  65.0000  96.0000 0000000   0.0000 276.0000 13.42494874    18
CTC2_L_00344009-04
1 10035U 24079XW  26075.70045139  .00000000  00000+0  00000-0 0  9999
2 10035  65.0000  96.0000 0000000   0.0000   6.0000 13.42494874    10
CTC2_L_00344010-01
1 10036U 23171Q   26075.70045139  .00000000  00000+0  00000-0 0  9992
2 10036  65.0000 108.0000 0000000   0.0000 108.0000 13.42494874    18
CTC2_L_00344010-02
1 10037U 26976DS  26075.70045139  .00000000  00000+0  00000-0 0  9999
2 10037  65.0000 108.0000 0000000   0.0000 198.0000 13.42494874    18
CTC2_L_00344010-03
1 10038U 23020GV  26075.70045139  .00000000  00000+0  00000-0 0  9997
2 10038  65.0000 108.0000 0000000   0.0000 288.0000 13.42494874    19
CTC2_L_00344010-04
1 10039U 25899XG  26075.70045139  .00000000  00000+0  00000-0 0  9994
2 10039  65.0000 108.0000 0000000   0.0000  18.0000 13.42494874    11
CTC2_L_00344011-01
1 10040U 22909NQ  26075.70045139  .00000000  00000+0  00000-0 0  9995
2 10040  65.0000 120.0000 0000000   0.0000 120.0000 13.42494874    11
CTC2_L_00344011-02
1 10041U 22783TE  26075.70045139  .00000000  00000+0  00000-0 0  9996
2 10041  65.0000 120.0000 0000000   0.0000 210.0000 13.42494874    12
CTC2_L_00344011-03
1 10042U 22056LC  26075.70045139  .00000000  00000+0  00000-0 0  9990
2 10042  65.0000 120.0000 0000000   0.0000 300.0000 13.42494874    13
CTC2_L_00344011-04
1 10043U 25283SK  26075.70045139  .00000000  00000+0  00000-0 0  9996
2 10043  65.0000 120.0000 0000000   0.0000  30.0000 13.42494874    14
CTC2_L_00344012-01
1 10044U 26544FI  26075.70045139  .00000000  00000+0  00000-0 0  9998
2 10044  65.0000 132.0000 0000000   0.0000 132.0000 13.42494874    11
CTC2_L_00344012-02
1 10045U 24829AF  26075.70045139  .00000000  00000+0  00000-0 0  9993
2 10045  65.0000 132.0000 0000000   0.0000 222.0000 13.42494874    12
CTC2_L_00344012-03
1 10046U 23205EL  26075.70045139  .00000000  00000+0  00000-0 0  9991
2 10046  65.0000 132.0000 0000000   0.0000 312.0000 13.42494874    13
CTC2_L_00344012-04
1 10047U 26339IV  26075.70045139  .00000000  00000+0  00000-0 0  9993
2 10047  65.0000 132.0000 0000000   0.0000  42.0000 13.42494874    14
CTC2_L_00344013-01
1 10048U 24895NI  26075.70045139  .00000000  00000+0  00000-0 0  9999
2 10048  65.0000 144.0000 0000000   0.0000 144.0000 13.42494874    11
CTC2_L_00344013-02
1 10049U 24784XV  26075.70045139  .00000000  00000+0  00000-0 0  9997
2 10049  65.0000 144.0000 0000000   0.0000 234.0000 13.42494874    12
CTC2_L_00344013-03
1 10050U 24898SP  26075.70045139  .00000000  00000+0  00000-0 0  9995
2 10050  65.0000 144.0000 0000000   0.0000 324.0000 13.42494874    14
CTC2_L_00344013-04
1 10051U 23037BN  26075.70045139  .00000000  00000+0  00000-0 0  9990
2 10051  65.0000 144.0000 0000000   0.0000  54.0000 13.42494874    15
CTC2_L_00344014-01
1 10052U 26466ZU  26075.70045139  .00000000  00000+0  00000-0 0  9990
2 10052  65.0000 156.0000 0000000   0.0000 156.0000 13.42494874    12
CTC2_L_00344014-02
1 10053U 22168EG  26075.70045139  .00000000  00000+0  00000-0 0  9996
2 10053  65.0000 156.0000 0000000   0.0000 246.0000 13.42494874    13
CTC2_L_00344014-03
1 10054U 24787MX  26075.70045139  .00000000  00000+0  00000-0 0  9996
2 10054  65.0000 156.0000 0000000   0.0000 336.0000 13.42494874    14
CTC2_L_00344014-04
1 10055U 23879UX  26075.70045139  .00000000  00000+0  00000-0 0  9998
2 10055  65.0000 156.0000 0000000   0.0000  66.0000 13.42494874    15
CTC2_L_00344015-01
1 10056U 25240YY  26075.70045139  .00000000  00000+0  00000-0 0  9993
2 10056  65.0000 168.0000 0000000   0.0000 168.0000 13.42494874    12
CTC2_L_00344015-02
1 10057U 24713DZ  26075.70045139  .00000000  00000+0  00000-0 0  9998
2 10057  65.0000 168.0000 0000000   0.0000 258.0000 13.42494874    13
CTC2_L_00344015-03
1 10058U 23463ZN  26075.70045139  .00000000  00000+0  00000-0 0  9990
2 10058  65.0000 168.0000 0000000   0.0000 348.0000 13.42494874    14
CTC2_L_00344015-04
1 10059U 23561GA  26075.70045139  .00000000  00000+0  00000-0 0  9990
2 10059  65.0000 168.0000 0000000   0.0000  78.0000 13.42494874    15
CTC2_L_00344016-01
1 10060U 26959KM  26075.70045139  .00000000  00000+0  00000-0 0  9996
2 10060  65.0000 180.0000 0000000   0.0000 180.0000 13.42494874    15
CTC2_L_00344016-02
1 10061U 22930J   26075.70045139  .00000000  00000+0  00000-0 0  9992
2 10061  65.0000 180.0000 0000000   0.0000 270.0000 13.42494874    16
